LEMUR-2-ARIANNA         
1 62699U 25009CU  26162.16373153  .00006759  00000+0  51479-3 0  9999
2 62699  97.6891 243.5951 0003533 133.8286 226.3231 15.02394087 76650
LEMUR-2-ALISIA          
1 62706U 25009DB  26162.20937586  .00006149  00000+0  46522-3 0  9995
2 62706  97.6967 244.4199 0001300 189.2831 170.8370 15.02683926 99260
LEMUR-2-ROUNDTRIPPER    
1 62711U 25009DG  26162.17149962  .00007318  00000+0  53822-3 0  9990
2 62711  97.7251 244.8591 0004691 150.5837 209.5653 15.03688758 76725
LEMUR-2-MYNAMEISJEFF    
1 62712U 25009DH  26162.16994701  .00007033  00000+0  51734-3 0  9993
2 62712  97.7300 245.2350 0002899 174.8822 185.2434 15.03702125 76722
LEMUR-2-LEIA-PHILIP     
1 63246U 25052AN  26162.18884561  .00001784  00000+0  15881-3 0  9998
2 63246  97.6848  54.2405 0002074 232.4731 127.6303 14.97302268 67771
LEMUR-2-LIA-MARTIN      
1 63248U 25052AQ  26161.66131804  .00004393  00000+0  37932-3 0  9997
2 63248  97.6916  54.1870 0002506 166.0645 194.0647 14.97752574 67701
LEMUR-2-DELOITTE-1      
1 63259U 25052BB  26162.23817885  .00003214  00000+0  28026-3 0  9998
2 63259  97.6926  55.0838 0002882 109.3580 250.7954 14.97555570 67802
LEMUR-2-EMERSONROSE     
1 63261U 25052BD  26161.95221427  .00002810  00000+0  23656-3 0  9995
2 63261  97.6904  55.3496 0002205  68.2416 291.9041 14.99036834 67807
LEMUR-2-MARACHE-FRAN    
1 63262U 25052BE  26162.19857682  .00004742  00000+0  38550-3 0  9996
2 63262  97.6955  55.8957 0006001  42.8369 317.3321 15.00038484 67860
LEMUR-2-THEFALCONER     
1 63264U 25052BG  26162.19690607  .00002997  00000+0  26307-3 0  9997
2 63264  97.6885  54.6704 0003389  52.5455 307.6074 14.97352381 67790
LEMUR-2-UNTITLED-SC     
1 63351U 25061A   26162.20439363  .00003287  00000+0  18711-3 0  9999
2 63351  97.5630 137.6098 0017027 287.6047  72.3324 15.13429808 66683
LEMUR-2-ESPERANZA       
1 63352U 25061B   26162.18189597  .00002589  00000+0  14782-3 0  9996
2 63352  97.5635 137.6795 0016531 287.0122  72.9297 15.13523181 66684
LEMUR-2-KREMPEL-BRO2    
1 63353U 25061C   26161.88013302  .00003827  00000+0  21406-3 0  9990
2 63353  97.5683 137.9052 0017503 279.6676  80.2578 15.13956843 66654
LEMUR-2-THERMORAPTOR    
1 63354U 25061D   26161.86252824  .00003444  00000+0  19258-3 0  9990
2 63354  97.5688 137.9622 0017137 278.6567  81.2723 15.14036261 66651
LEMUR-2-NEUROSPICY      
1 63355U 25061E   26162.16510867  .00003121  00000+0  17447-3 0  9999
2 63355  97.5614 137.8938 0015036 281.7235  78.2310 15.14151039 66708
LEMUR-2-TILLINFINITY    
1 63356U 25061F   26162.20269693  .00003319  00000+0  18219-3 0  9990
2 63356  97.5602 138.2177 0016214 268.1914  91.7461 15.14738767 66737
LEMUR-2-KREMPEL-BRO1    
1 63357U 25061G   26162.24146707  .00002810  00000+0  15562-3 0  9998
2 63357  97.5601 138.1738 0016842 269.3774  90.5528 15.14543691 66734
LEMUR-2-LANGER2SPACE    
1 63358U 25061H   26162.20070548  .00003364  00000+0  18728-3 0  9996
2 63358  97.5607 137.9499 0014908 279.7998  80.1550 15.14241263 66714
LEMUR-2-BALTO           
1 63395U 25052BH  26162.18318961  .00004723  00000+0  38419-3 0  9997
2 63395  97.6892  55.8629 0006769  72.8584 287.3381 15.00018948 67861
LEMUR-2-KRISH           
1 64561U 25135AK  26162.05529837  .00004556  00000+0  40978-3 0  9994
2 64561  97.7727 276.9745 0001450 107.3749 252.7631 14.96146821 53000
LEMUR-2-HUBBLE-4        
1 64565U 25135AP  26162.23930765  .00001049  00000+0  10592-3 0  9997
2 64565  97.7693 276.2178 0001360 344.2917  15.8260 14.93179582 52987
LEMUR-2-SEJONG-2        
1 64586U 25135BL  26162.22102056  .00003083  00000+0  27543-3 0  9997
2 64586  97.7685 277.2836 0004319   6.9141 353.2139 14.96653093 53051
LEMUR-2-HUBBLE-5        
1 64840U 25135BT  26162.13014558  .00001719  00000+0  16612-3 0  9998
2 64840  97.7712 276.7338 0005551  14.8056 345.3326 14.94117429 53009
LEMUR-2-KARENDARRELL    
1 64841U 25135BU  26162.24812732  .00006204  00000+0  50282-3 0  9996
2 64841  97.7669 278.4671 0009289 225.0459 135.0012 15.00022943 53128
LEMUR-2-LUCILLE-ROSE    
1 65403U 25135BV  26161.88852013  .00006272  00000+0  50748-3 0  9998
2 65403  97.7768 278.1200 0010805 307.8873  52.1372 15.00074628 47693
LEMUR-2-AFFIE-WAUWIE    
1 66295U 25248C   26161.25212135  .00012829  00000+0  48614-3 0  9993
2 66295  45.3855 152.5549 0008368  38.3394 321.8088 15.26939127 33535
LEMUR-2-DEANANDMAEVE    
1 66678U 25276N   26162.19114005  .00005258  00000+0  24963-3 0  9999
2 66678  97.4215 235.7663 0006293  34.5030 325.6612 15.19658019 29506
LEMUR-2-STAS-GORBUK     
1 66686U 25276W   26162.27013740  .00004787  00000+0  22982-3 0  9996
2 66686  97.4251 235.8993 0005700  34.9695 325.1914 15.19317033 29514
LEMUR-2-TEODOR          
1 66768U 25276DG  26162.19460948  .00004592  00000+0  21029-3 0  9999
2 66768  97.4155 236.0540 0001981 121.7448 238.3981 15.20983999 29530
