OBJECT_NAME,OBJECT_ID,EPOCH,MEAN_MOTION,ECCENTRICITY,INCLINATION,RA_OF_ASC_NODE,ARG_OF_PERICENTER,MEAN_ANOMALY,EPHEMERIS_TYPE,CLASSIFICATION_TYPE,NORAD_CAT_ID,ELEMENT_SET_NO,REV_AT_EPOCH,BSTAR,MEAN_MOTION_DOT,MEAN_MOTION_DDOT
LEMUR-2-ARIANNA,2025-009CU,2026-06-11T03:55:46.404192,15.02394087,.00035338,97.6891,243.5951,133.8286,226.3231,0,U,62699,999,7665,.51478924E-3,.6759E-4,0
LEMUR-2-ALISIA,2025-009DB,2026-06-11T05:01:30.074304,15.02683926,.00013006,97.6967,244.4199,189.2831,170.8370,0,U,62706,999,9926,.46522151E-3,.6149E-4,0
LEMUR-2-ROUNDTRIPPER,2025-009DG,2026-06-11T04:06:57.567168,15.03688758,.00046917,97.7251,244.8591,150.5837,209.5653,0,U,62711,999,7672,.53821836E-3,.7318E-4,0
LEMUR-2-MYNAMEISJEFF,2025-009DH,2026-06-11T04:04:43.421664,15.03702125,.0002899,97.7300,245.2350,174.8822,185.2434,0,U,62712,999,7672,.51733627E-3,.7033E-4,0
LEMUR-2-LEIA-PHILIP,2025-052AN,2026-06-11T04:31:56.260704,14.97302268,.00020748,97.6848,54.2405,232.4731,127.6303,0,U,63246,999,6777,.15880957E-3,.1784E-4,0
LEMUR-2-LIA-MARTIN,2025-052AQ,2026-06-10T15:52:17.878656,14.97752574,.00025063,97.6916,54.1870,166.0645,194.0647,0,U,63248,999,6770,.37932319E-3,.4393E-4,0
LEMUR-2-DELOITTE-1,2025-052BB,2026-06-11T05:42:58.652640,14.97555570,.00028823,97.6926,55.0838,109.3580,250.7954,0,U,63259,999,6780,.28026219E-3,.3214E-4,0
LEMUR-2-EMERSONROSE,2025-052BD,2026-06-10T22:51:11.312928,14.99036834,.00022058,97.6904,55.3496,68.2416,291.9041,0,U,63261,999,6780,.23656289E-3,.281E-4,0
LEMUR-2-MARACHE-FRAN,2025-052BE,2026-06-11T04:45:57.037248,15.00038484,.00060013,97.6955,55.8957,42.8369,317.3321,0,U,63262,999,6786,.3855036E-3,.4742E-4,0
LEMUR-2-THEFALCONER,2025-052BG,2026-06-11T04:43:32.684448,14.97352381,.00033893,97.6885,54.6704,52.5455,307.6074,0,U,63264,999,6779,.2630717E-3,.2997E-4,0
LEMUR-2-UNTITLED-SC,2025-061A,2026-06-11T04:54:19.609632,15.13429808,.0017027,97.5630,137.6098,287.6047,72.3324,0,U,63351,999,6668,.18710782E-3,.3287E-4,0
LEMUR-2-ESPERANZA,2025-061B,2026-06-11T04:21:55.811808,15.13523181,.00165315,97.5635,137.6795,287.0122,72.9297,0,U,63352,999,6668,.14782378E-3,.2589E-4,0
LEMUR-2-KREMPEL-BRO2,2025-061C,2026-06-10T21:07:23.492928,15.13956843,.0017503,97.5683,137.9052,279.6676,80.2578,0,U,63353,999,6665,.21405923E-3,.3827E-4,0
LEMUR-2-THERMORAPTOR,2025-061D,2026-06-10T20:42:02.439936,15.14036261,.00171376,97.5688,137.9622,278.6567,81.2723,0,U,63354,999,6665,.19257953E-3,.3444E-4,0
LEMUR-2-NEUROSPICY,2025-061E,2026-06-11T03:57:45.389088,15.14151039,.0015036,97.5614,137.8938,281.7235,78.2310,0,U,63355,999,6670,.17446664E-3,.3121E-4,0
LEMUR-2-TILLINFINITY,2025-061F,2026-06-11T04:51:53.014752,15.14738767,.00162147,97.5602,138.2177,268.1914,91.7461,0,U,63356,999,6673,.18219475E-3,.3319E-4,0
LEMUR-2-KREMPEL-BRO1,2025-061G,2026-06-11T05:47:42.754848,15.14543691,.00168429,97.5601,138.1738,269.3774,90.5528,0,U,63357,999,6673,.15561834E-3,.281E-4,0
LEMUR-2-LANGER2SPACE,2025-061H,2026-06-11T04:49:00.953472,15.14241263,.00149082,97.5607,137.9499,279.7998,80.1550,0,U,63358,999,6671,.1872774E-3,.3364E-4,0
LEMUR-2-BALTO,2025-052BH,2026-06-11T04:23:47.582304,15.00018948,.00067696,97.6892,55.8629,72.8584,287.3381,0,U,63395,999,6786,.3841912E-3,.4723E-4,0
LEMUR-2-KRISH,2025-135AK,2026-06-11T01:19:37.779168,14.96146821,.00014507,97.7727,276.9745,107.3749,252.7631,0,U,64561,999,5300,.40977912E-3,.4556E-4,0
LEMUR-2-HUBBLE-4,2025-135AP,2026-06-11T05:44:36.180960,14.93179582,.00013606,97.7693,276.2178,344.2917,15.8260,0,U,64565,999,5298,.1059237E-3,.1049E-4,0
LEMUR-2-SEJONG-2,2025-135BL,2026-06-11T05:18:16.176384,14.96653093,.00043196,97.7685,277.2836,6.9141,353.2139,0,U,64586,999,5305,.27542888E-3,.3083E-4,0
LEMUR-2-HUBBLE-5,2025-135BT,2026-06-11T03:07:24.578112,14.94117429,.00055516,97.7712,276.7338,14.8056,345.3326,0,U,64840,999,5300,.16611683E-3,.1719E-4,0
LEMUR-2-KARENDARRELL,2025-135BU,2026-06-11T05:57:18.200448,15.00022943,.00092894,97.7669,278.4671,225.0459,135.0012,0,U,64841,999,5312,.50282364E-3,.6204E-4,0
LEMUR-2-LUCILLE-ROSE,2025-135BV,2026-06-10T21:19:28.139232,15.00074628,.00108051,97.7768,278.1200,307.8873,52.1372,0,U,65403,999,4769,.50748297E-3,.6272E-4,0
LEMUR-2-AFFIE-WAUWIE,2025-248C,2026-06-10T06:03:03.284640,15.26939127,.0008368,45.3855,152.5549,38.3394,321.8088,0,U,66295,999,3353,.48614E-3,.12829E-3,0
LEMUR-2-DEANANDMAEVE,2025-276N,2026-06-11T04:35:14.500320,15.19658019,.0006293,97.4215,235.7663,34.5030,325.6612,0,U,66678,999,2950,.24963099E-3,.5258E-4,0
LEMUR-2-STAS-GORBUK,2025-276W,2026-06-11T06:28:59.871360,15.19317033,.00057006,97.4251,235.8993,34.9695,325.1914,0,U,66686,999,2951,.22982241E-3,.4787E-4,0
LEMUR-2-TEODOR,2025-276DG,2026-06-11T04:40:14.259072,15.20983999,.00019819,97.4155,236.0540,121.7448,238.3981,0,U,66768,999,2953,.2102872E-3,.4592E-4,0
